start=new Date('2022-09-30T00:00:00.000Z').valueOf();
sats=[{"INCLINATION":"53.2164","SEMIMAJOR_AXIS":"6917.898","MEAN_ELEMENT_THEORY":"SGP4","COUNTRY_CODE":"US","NORAD_CAT_ID":"52121","FILE":"3586894","ARG_OF_PERICENTER":"45.6318","ECCENTRICITY":"0.00018730","LAUNCH_DATE":"2022-03-19","OBJECT_TYPE":"PAYLOAD","EPOCH":"2022-09-29T12:44:00.669120","CLASSIFICATION_TYPE":"U","RA_OF_ASC_NODE":"312.7205","CENTER_NAME":"EARTH","APOAPSIS":"541.059","PERIAPSIS":"538.468","REF_FRAME":"TEME","TIME_SYSTEM":"UTC","EPHEMERIS_TYPE":"0","REV_AT_EPOCH":"3113","MEAN_MOTION_DOT":"-0.00000179","MEAN_ANOMALY":"314.4827","TLE_LINE1":"1 52121U 22029AK  22272.53056330 -.00000179  00000-0  68642-5 0  9995","GP_ID":"213806138","TLE_LINE2":"2 52121  53.2164 312.7205 0001873  45.6318 314.4827 15.08834085 31139","RCS_SIZE":"LARGE","DECAY_DATE":null,"BSTAR":"0.00000686420000","MEAN_MOTION_DDOT":"0.0000000000000","OBJECT_NAME":"STARLINK-3678","ELEMENT_SET_NO":"999","MEAN_MOTION":"15.08834085","PERIOD":"95.438","SITE":"AFETR","OBJECT_ID":"2022-029AK"},{"BSTAR":"-0.00021377000000","MEAN_MOTION":"15.08819826","SITE":"AFETR","PERIOD":"95.439","MEAN_MOTION_DDOT":"0.0000000000000","OBJECT_NAME":"STARLINK-3726","ELEMENT_SET_NO":"999","OBJECT_ID":"2022-029AL","MEAN_ANOMALY":"316.2720","TLE_LINE1":"1 52122U 22029AL  22272.55173336 -.00003687  00000-0 -21377-3 0  9994","GP_ID":"213807389","TLE_LINE2":"2 52122  53.2193 322.6303 0001657  43.8403 316.2720 15.08819826 31000","RCS_SIZE":"LARGE","DECAY_DATE":null,"OBJECT_TYPE":"PAYLOAD","LAUNCH_DATE":"2022-03-19","EPOCH":"2022-09-29T13:14:29.762304","RA_OF_ASC_NODE":"322.6303","CLASSIFICATION_TYPE":"U","PERIAPSIS":"538.661","REF_FRAME":"TEME","CENTER_NAME":"EARTH","APOAPSIS":"540.953","EPHEMERIS_TYPE":"0","MEAN_MOTION_DOT":"-0.00003687","REV_AT_EPOCH":"3100","TIME_SYSTEM":"UTC","MEAN_ELEMENT_THEORY":"SGP4","SEMIMAJOR_AXIS":"6917.942","INCLINATION":"53.2193","NORAD_CAT_ID":"52122","COUNTRY_CODE":"US","FILE":"3586894","ECCENTRICITY":"0.00016570","ARG_OF_PERICENTER":"43.8403"},{"DECAY_DATE":null,"RCS_SIZE":"LARGE","GP_ID":"213810466","TLE_LINE1":"1 52123U 22029AM  22272.52320608  .00000252  00000-0  33924-4 0  9993","TLE_LINE2":"2 52123  53.2174 312.7638 0001641  53.0578 307.0565 15.08832424 31149","MEAN_ANOMALY":"307.0565","OBJECT_ID":"2022-029AM","MEAN_MOTION":"15.08832424","PERIOD":"95.438","SITE":"AFETR","MEAN_MOTION_DDOT":"0.0000000000000","OBJECT_NAME":"STARLINK-3725","ELEMENT_SET_NO":"999","BSTAR":"0.00003392400000","ECCENTRICITY":"0.00016410","ARG_OF_PERICENTER":"53.0578","FILE":"3586966","NORAD_CAT_ID":"52123","COUNTRY_CODE":"US","MEAN_ELEMENT_THEORY":"SGP4","INCLINATION":"53.2174","SEMIMAJOR_AXIS":"6917.904","EPHEMERIS_TYPE":"0","MEAN_MOTION_DOT":"0.00000252","REV_AT_EPOCH":"3114","TIME_SYSTEM":"UTC","PERIAPSIS":"538.633","REF_FRAME":"TEME","CENTER_NAME":"EARTH","APOAPSIS":"540.904","RA_OF_ASC_NODE":"312.7638","EPOCH":"2022-09-29T12:33:25.005312","CLASSIFICATION_TYPE":"U","OBJECT_TYPE":"PAYLOAD","LAUNCH_DATE":"2022-03-19"},{"BSTAR":"-0.00020310000000","ELEMENT_SET_NO":"999","MEAN_MOTION_DDOT":"0.0000000000000","OBJECT_NAME":"STARLINK-3684","SITE":"AFETR","PERIOD":"95.439","MEAN_MOTION":"15.08822217","OBJECT_ID":"2022-029AN","MEAN_ANOMALY":"319.3253","TLE_LINE2":"2 52124  53.2186 323.2599 0001900  40.7882 319.3253 15.08822217 30985","GP_ID":"213806388","TLE_LINE1":"1 52124U 22029AN  22272.41189341 -.00003517  00000-0 -20310-3 0  9992","RCS_SIZE":"LARGE","DECAY_DATE":null,"LAUNCH_DATE":"2022-03-19","OBJECT_TYPE":"PAYLOAD","RA_OF_ASC_NODE":"323.2599","EPOCH":"2022-09-29T09:53:07.590624","CLASSIFICATION_TYPE":"U","APOAPSIS":"541.114","CENTER_NAME":"EARTH","REF_FRAME":"TEME","PERIAPSIS":"538.485","TIME_SYSTEM":"UTC","REV_AT_EPOCH":"3098","MEAN_MOTION_DOT":"-0.00003517","EPHEMERIS_TYPE":"0","SEMIMAJOR_AXIS":"6917.935","INCLINATION":"53.2186","MEAN_ELEMENT_THEORY":"SGP4","COUNTRY_CODE":"US","NORAD_CAT_ID":"52124","FILE":"3586894","ARG_OF_PERICENTER":"40.7882","ECCENTRICITY":"0.00019000"},{"RCS_SIZE":"LARGE","DECAY_DATE":null,"MEAN_ANOMALY":"311.8845","TLE_LINE1":"1 52125U 22029AP  22272.85073033 -.00001573  00000-0 -80751-4 0  9997","GP_ID":"213838062","TLE_LINE2":"2 52125  53.2165 311.2846 0001832  48.2303 311.8845 15.08834754 31197","OBJECT_ID":"2022-029AP","BSTAR":"-0.00008075100000","MEAN_MOTION":"15.08834754","PERIOD":"95.438","SITE":"AFETR","OBJECT_NAME":"STARLINK-3727","MEAN_MOTION_DDOT":"0.0000000000000","ELEMENT_SET_NO":"999","FILE":"3587117","ECCENTRICITY":"0.00018320","ARG_OF_PERICENTER":"48.2303","MEAN_ELEMENT_THEORY":"SGP4","SEMIMAJOR_AXIS":"6917.896","INCLINATION":"53.2165","NORAD_CAT_ID":"52125","COUNTRY_CODE":"US","PERIAPSIS":"538.494","REF_FRAME":"TEME","CENTER_NAME":"EARTH","APOAPSIS":"541.029","EPHEMERIS_TYPE":"0","MEAN_MOTION_DOT":"-0.00001573","REV_AT_EPOCH":"3119","TIME_SYSTEM":"UTC","OBJECT_TYPE":"PAYLOAD","LAUNCH_DATE":"2022-03-19","RA_OF_ASC_NODE":"311.2846","CLASSIFICATION_TYPE":"U","EPOCH":"2022-09-29T20:25:03.100512"},{"LAUNCH_DATE":"2022-03-19","OBJECT_TYPE":"PAYLOAD","RA_OF_ASC_NODE":"312.7356","CLASSIFICATION_TYPE":"U","EPOCH":"2022-09-29T12:38:41.768448","CENTER_NAME":"EARTH","APOAPSIS":"540.874","PERIAPSIS":"538.562","REF_FRAME":"TEME","TIME_SYSTEM":"UTC","EPHEMERIS_TYPE":"0","MEAN_MOTION_DOT":"-0.00002258","REV_AT_EPOCH":"3113","SEMIMAJOR_AXIS":"6917.853","INCLINATION":"53.2162","MEAN_ELEMENT_THEORY":"SGP4","COUNTRY_CODE":"US","NORAD_CAT_ID":"52126","FILE":"3586894","ARG_OF_PERICENTER":"53.1021","ECCENTRICITY":"0.00016710","BSTAR":"-0.00012381000000","MEAN_MOTION_DDOT":"0.0000000000000","OBJECT_NAME":"STARLINK-3732","ELEMENT_SET_NO":"999","MEAN_MOTION":"15.08849019","PERIOD":"95.437","SITE":"AFETR","OBJECT_ID":"2022-029AQ","MEAN_ANOMALY":"307.0124","TLE_LINE1":"1 52126U 22029AQ  22272.52687232 -.00002258  00000-0 -12381-3 0  9998","GP_ID":"213806890","TLE_LINE2":"2 52126  53.2162 312.7356 0001671  53.1021 307.0124 15.08849019 31131","RCS_SIZE":"LARGE","DECAY_DATE":null},{"ARG_OF_PERICENTER":"45.6105","ECCENTRICITY":"0.00018990","FILE":"3587117","COUNTRY_CODE":"US","NORAD_CAT_ID":"52127","SEMIMAJOR_AXIS":"6917.863","INCLINATION":"53.2155","MEAN_ELEMENT_THEORY":"SGP4","TIME_SYSTEM":"UTC","EPHEMERIS_TYPE":"0","REV_AT_EPOCH":"3114","MEAN_MOTION_DOT":"0.00000549","CENTER_NAME":"EARTH","APOAPSIS":"541.042","PERIAPSIS":"538.415","REF_FRAME":"TEME","EPOCH":"2022-09-29T13:58:11.287776","RA_OF_ASC_NODE":"312.4850","CLASSIFICATION_TYPE":"U","LAUNCH_DATE":"2022-03-19","OBJECT_TYPE":"PAYLOAD","DECAY_DATE":null,"RCS_SIZE":"LARGE","TLE_LINE1":"1 52127U 22029AR  22272.58207509  .00000549  00000-0  52619-4 0  9998","GP_ID":"213837061","TLE_LINE2":"2 52127  53.2155 312.4850 0001899  45.6105 314.5042 15.08845620 31148","MEAN_ANOMALY":"314.5042","OBJECT_ID":"2022-029AR","MEAN_MOTION_DDOT":"0.0000000000000","OBJECT_NAME":"STARLINK-3715","ELEMENT_SET_NO":"999","MEAN_MOTION":"15.08845620","SITE":"AFETR","PERIOD":"95.437","BSTAR":"0.00005261900000"},{"RCS_SIZE":"LARGE","DECAY_DATE":null,"MEAN_ANOMALY":"298.5844","TLE_LINE2":"2 52129  53.2171 312.2199 0001517  61.5301 298.5844 15.08836603 31168","TLE_LINE1":"1 52129U 22029AT  22272.64096093 -.00001508  00000-0 -76694-4 0  9998","GP_ID":"213837311","OBJECT_ID":"2022-029AT","BSTAR":"-0.00007669400000","PERIOD":"95.438","SITE":"AFETR","MEAN_MOTION":"15.08836603","ELEMENT_SET_NO":"999","MEAN_MOTION_DDOT":"0.0000000000000","OBJECT_NAME":"STARLINK-3661","FILE":"3587117","ECCENTRICITY":"0.00015170","ARG_OF_PERICENTER":"61.5301","MEAN_ELEMENT_THEORY":"SGP4","SEMIMAJOR_AXIS":"6917.891","INCLINATION":"53.2171","NORAD_CAT_ID":"52129","COUNTRY_CODE":"US","REF_FRAME":"TEME","PERIAPSIS":"538.706","APOAPSIS":"540.805","CENTER_NAME":"EARTH","REV_AT_EPOCH":"3116","MEAN_MOTION_DOT":"-0.00001508","EPHEMERIS_TYPE":"0","TIME_SYSTEM":"UTC","OBJECT_TYPE":"PAYLOAD","LAUNCH_DATE":"2022-03-19","RA_OF_ASC_NODE":"312.2199","EPOCH":"2022-09-29T15:22:59.024352","CLASSIFICATION_TYPE":"U"},{"CENTER_NAME":"EARTH","APOAPSIS":"540.913","PERIAPSIS":"538.713","REF_FRAME":"TEME","TIME_SYSTEM":"UTC","EPHEMERIS_TYPE":"0","MEAN_MOTION_DOT":"-0.00002694","REV_AT_EPOCH":"3119","LAUNCH_DATE":"2022-03-19","OBJECT_TYPE":"PAYLOAD","EPOCH":"2022-09-29T20:03:51.913728","CLASSIFICATION_TYPE":"U","RA_OF_ASC_NODE":"311.3518","FILE":"3587117","ARG_OF_PERICENTER":"54.5972","ECCENTRICITY":"0.00015900","SEMIMAJOR_AXIS":"6917.948","INCLINATION":"53.2200","MEAN_ELEMENT_THEORY":"SGP4","COUNTRY_CODE":"US","NORAD_CAT_ID":"52131","OBJECT_ID":"2022-029AV","BSTAR":"-0.00015134000000","OBJECT_NAME":"STARLINK-3711","MEAN_MOTION_DDOT":"0.0000000000000","ELEMENT_SET_NO":"999","MEAN_MOTION":"15.08817878","SITE":"AFETR","PERIOD":"95.439","RCS_SIZE":"LARGE","DECAY_DATE":null,"MEAN_ANOMALY":"305.5168","TLE_LINE1":"1 52131U 22029AV  22272.83601752 -.00002694  00000-0 -15134-3 0  9994","GP_ID":"213837562","TLE_LINE2":"2 52131  53.2200 311.3518 0001590  54.5972 305.5168 15.08817878 31190"},{"OBJECT_ID":"2022-029AW","BSTAR":"0.00030114000000","OBJECT_NAME":"STARLINK-3718","MEAN_MOTION_DDOT":"0.0000000000000","ELEMENT_SET_NO":"999","MEAN_MOTION":"15.08825958","SITE":"AFETR","PERIOD":"95.438","RCS_SIZE":"LARGE","DECAY_DATE":null,"MEAN_ANOMALY":"322.4195","TLE_LINE1":"1 52132U 22029AW  22272.84335737  .00004506  00000-0  30114-3 0  9990","GP_ID":"213838306","TLE_LINE2":"2 52132  53.2163 311.3218 0001964  37.6934 322.4195 15.08825958 31197","CENTER_NAME":"EARTH","APOAPSIS":"541.147","PERIAPSIS":"538.430","REF_FRAME":"TEME","TIME_SYSTEM":"UTC","EPHEMERIS_TYPE":"0","REV_AT_EPOCH":"3119","MEAN_MOTION_DOT":"0.00004506","LAUNCH_DATE":"2022-03-19","OBJECT_TYPE":"PAYLOAD","RA_OF_ASC_NODE":"311.3218","EPOCH":"2022-09-29T20:14:26.076768","CLASSIFICATION_TYPE":"U","FILE":"3587117","ARG_OF_PERICENTER":"37.6934","ECCENTRICITY":"0.00019640","INCLINATION":"53.2163","SEMIMAJOR_AXIS":"6917.923","MEAN_ELEMENT_THEORY":"SGP4","COUNTRY_CODE":"US","NORAD_CAT_ID":"52132"}];
